IRIDIUM 33 DEB          
1 40996U 97051ABJ 24153.04899514  .00012527  00000+0  24437-2 0  9993
2 40996  86.3649 255.1587 0013192 193.9771 288.8098 14.62846168542170
IRIDIUM 33 DEB          
1 40998U 97051ABL 24131.75049947  .00004287  00000+0  13276-2 0  9999
2 40998  86.3801 300.9724 0007404 181.4621 238.0587 14.41010907987308
IRIDIUM 33 DEB          
1 46734U 97051ABR 24153.02301723  .00003159  00000+0  10740-2 0  9990
2 46734  86.2658 247.3077 0044806  13.5512 164.7581 14.35772970549601
IRIDIUM 33 DEB          
1 46965U 97051ABX 24150.19220182  .00002710  00000+0  64654-3 0  9996
2 46965  86.3427 228.6975 0023783  71.7330 318.1055 14.53219440540763
IRIDIUM 33 DEB          
1 46971U 97051ACD 24133.55918193  .00028572  00000+0  53306-2 0  9995
2 46971  86.3462 237.6157 0015323 146.6545 229.7024 14.64774175556619
IRIDIUM 33 DEB          
1 46972U 97051ACE 24138.67144212  .00006274  00000+0  17587-2 0  9993
2 46972  86.3855 285.5386 0008638 209.7434 165.2592 14.45913486532629
IRIDIUM 33 DEB          
1 46974U 97051ACG 24150.28511009  .00006262  00000+0  23943-2 0  9998
2 46974  86.3102 347.1791 0117083 223.4773 135.7144 14.26843485494357
IRIDIUM 33 DEB          
1 46979U 97051ACM 24146.69851167  .00013759  00000+0  34364-2 0  9993
2 46979  86.3523 302.2858 0054601  27.2860 333.1193 14.50563588271214
